MALLIGYONG-1            
1 58400U 23179A   24032.42542928  .00005713  00000+0  25110-3 0  9993
2 58400  97.4228 281.2653 0016716  31.7291 328.4949 15.22169566 10926
